[{"OBJECT_NAME":"SHIYAN-1 (SY-1)","OBJECT_ID":"2004-012A","EPOCH":"2026-03-09T17:40:34.066560","MEAN_MOTION":15.31043463,"ECCENTRICITY":0.00058726,"INCLINATION":97.8764,"RA_OF_ASC_NODE":140.5238,"ARG_OF_PERICENTER":23.6952,"MEAN_ANOMALY":336.4557,"EPHEMERIS_TYPE":0,"CLASSIFICATION_TYPE":"U","NORAD_CAT_ID":28220,"ELEMENT_SET_NO":999,"REV_AT_EPOCH":19586,"BSTAR":0.00054854449,"MEAN_MOTION_DOT":0.00016393,"MEAN_MOTION_DDOT":0},{"OBJECT_NAME":"STARLINK-31328","OBJECT_ID":"2024-020E","EPOCH":"2026-03-09T22:45:44.672544","MEAN_MOTION":15.30221127,"ECCENTRICITY":9.287e-5,"INCLINATION":53.1605,"RA_OF_ASC_NODE":306.0129,"ARG_OF_PERICENTER":103.9985,"MEAN_ANOMALY":256.1119,"EPHEMERIS_TYPE":0,"CLASSIFICATION_TYPE":"U","NORAD_CAT_ID":58880,"ELEMENT_SET_NO":999,"REV_AT_EPOCH":11832,"BSTAR":0.00017324887,"MEAN_MOTION_DOT":4.779e-5,"MEAN_MOTION_DDOT":0}]
